[{"OBJECT_NAME":"SALSAT","OBJECT_ID":"2020-068K","EPOCH":"2026-03-09T22:26:21.804576","MEAN_MOTION":15.28191989,"ECCENTRICITY":0.00082652,"INCLINATION":97.8859,"RA_OF_ASC_NODE":66.0795,"ARG_OF_PERICENTER":295.8051,"MEAN_ANOMALY":64.2334,"EPHEMERIS_TYPE":0,"CLASSIFICATION_TYPE":"U","NORAD_CAT_ID":46495,"ELEMENT_SET_NO":999,"REV_AT_EPOCH":30019,"BSTAR":0.00040842582,"MEAN_MOTION_DOT":0.00011156,"MEAN_MOTION_DDOT":0},{"OBJECT_NAME":"STARLINK-34591","OBJECT_ID":"2025-144L","EPOCH":"2026-03-09T14:54:15.305472","MEAN_MOTION":15.3017624,"ECCENTRICITY":0.0001347,"INCLINATION":53.1602,"RA_OF_ASC_NODE":181.2038,"ARG_OF_PERICENTER":69.0087,"MEAN_ANOMALY":291.1057,"EPHEMERIS_TYPE":0,"CLASSIFICATION_TYPE":"U","NORAD_CAT_ID":64734,"ELEMENT_SET_NO":999,"REV_AT_EPOCH":3968,"BSTAR":0.0010016,"MEAN_MOTION_DOT":0.00029402,"MEAN_MOTION_DDOT":0}]
